{
    "links": {
        "self": "http://www.neowsapp.com/rest/v1/neo/3589302?api_key=iIulBulltgU6a56xZRHN4H3l9WmuAYTsLGpBGhQ2"
    },
    "id": "3589302",
    "neo_reference_id": "3589302",
    "name": "(2011 WR46)",
    "designation": "2011 WR46",
    "nasa_jpl_url": "http://ssd.jpl.nasa.gov/sbdb.cgi?sstr=3589302",
    "absolute_magnitude_h": 20.0,
    "estimated_diameter": {
        "kilometers": {
            "estimated_diameter_min": 0.2658,
            "estimated_diameter_max": 0.5943468684
        },
        "meters": {
            "estimated_diameter_min": 265.8,
            "estimated_diameter_max": 594.3468684194
        },
        "miles": {
            "estimated_diameter_min": 0.1651604118,
            "estimated_diameter_max": 0.369309908
        },
        "feet": {
            "estimated_diameter_min": 872.047272,
            "estimated_diameter_max": 1949.9569797852
        }
    },
    "is_potentially_hazardous_asteroid": true,
    "close_approach_data": [
        {
            "close_approach_date": "2011-12-11",
            "close_approach_date_full": "2011-Dec-11 04:01",
            "epoch_date_close_approach": 1323576060000,
            "relative_velocity": {
                "kilometers_per_second": "33.6153428702",
                "kilometers_per_hour": "121015.2343327031",
                "miles_per_hour": "75194.1604663399"
            },
            "miss_distance": {
                "astronomical": "0.0431309806",
                "lunar": "16.7779514534",
                "kilometers": "6452302.828771322",
                "miles": "4009275.0652433636"
            },
            "orbiting_body": "Earth"
        },
        {
            "close_approach_date": "2012-01-30",
            "close_approach_date_full": "2012-Jan-30 05:28",
            "epoch_date_close_approach": 1327901280000,
            "relative_velocity": {
                "kilometers_per_second": "47.9356231833",
                "kilometers_per_hour": "172568.2434598465",
                "miles_per_hour": "107227.195498703"
            },
            "miss_distance": {
                "astronomical": "0.0853779201",
                "lunar": "33.2120109189",
                "kilometers": "12772354.991990187",
                "miles": "7936373.3774991006"
            },
            "orbiting_body": "Merc"
        }
    ],
    "orbital_data": {
        "orbit_id": "13",
        "orbit_determination_date": "2017-04-06 08:51:51",
        "first_observation_date": "2011-11-27",
        "last_observation_date": "2011-12-08",
        "data_arc_in_days": 11,
        "observations_used": 126,
        "orbit_uncertainty": "8",
        "minimum_orbit_intersection": ".0277786",
        "jupiter_tisserand_invariant": "2.721",
        "epoch_osculation": "2455895.5",
        "eccentricity": ".8945683121783935",
        "semi_major_axis": "2.468882762379577",
        "inclination": "4.869449642099989",
        "ascending_node_longitude": "240.7287638602293",
        "orbital_period": "1416.932390069573",
        "perihelion_distance": ".2602984766713491",
        "perihelion_argument": "323.3662248941941",
        "aphelion_distance": "4.677467048087805",
        "perihelion_time": "2455944.877871542764",
        "mean_anomaly": "347.454564607333",
        "mean_motion": ".2540699912875332",
        "equinox": "J2000",
        "orbit_class": {
            "orbit_class_type": "APO",
            "orbit_class_description": "Near-Earth asteroid orbits which cross the Earth’s orbit similar to that of 1862 Apollo",
            "orbit_class_range": "a (semi-major axis) > 1.0 AU; q (perihelion) < 1.017 AU"
        }
    },
    "is_sentry_object": false
}